GLOBALSTAR M084         
1 38040U 11080A   25078.83453894 -.00000082  00000+0  12229-3 0  9990
2 38040  52.0024 320.4977 0000636 106.6239 330.9751 12.62263760611386
GLOBALSTAR M080         
1 38041U 11080B   25079.14448109 -.00000068  00000+0  19921-3 0  9999
2 38041  52.0079 321.1313 0000846 116.2205  49.6436 12.62270202611688
GLOBALSTAR M082         
1 38042U 11080C   25078.91620398 -.00000081  00000+0  12711-3 0  9991
2 38042  52.0067 277.2605 0000903  60.5565  88.6516 12.62264274612220
GLOBALSTAR M092         
1 38043U 11080D   25078.25771601 -.00000075  00000+0  16035-3 0  9999
2 38043  52.0113   9.6323 0000405  76.2772  79.9268 12.62273558610598
GLOBALSTAR M090         
1 38044U 11080E   25079.02699199 -.00000082  00000+0  12069-3 0  9998
2 38044  51.9874 270.8468 0000893  79.8885  92.2707 12.62268364612393
GLOBALSTAR M086         
1 38045U 11080F   25079.04693617 -.00000069  00000+0  19241-3 0  9994
2 38045  51.9886 271.3302 0001681 108.8847  34.3624 12.62268334612401
GLOBALSTAR M097         
1 39072U 13005A   25078.64612681 -.00000082  00000+0  12342-3 0  9991
2 39072  52.0038 187.0046 0000864 103.2039 256.8924 12.62270952559509
GLOBALSTAR M093         
1 39073U 13005B   25078.61931704 -.00000071  00000+0  18308-3 0  9995
2 39073  51.9804 180.5298 0000806 104.0151 256.0805 12.62262706559458
